NORAD_CAT_ID,OBJECT_NAME,OBJECT_TYPE,EPOCH,MEAN_MOTION,ECCENTRICITY,INCLINATION,RA_OF_ASC_NODE,ARG_OF_PERICENTER,MEAN_ANOMALY,BSTAR,MEAN_MOTION_DOT,MEAN_MOTION_DDOT,TLE_LINE0,TLE_LINE1,TLE_LINE2,SEMIMAJOR_AXIS,PERIOD,APOGEE,PERIGEE,DECAYED
53565.0,STARLINK-4575,PAYLOAD,2022-09-01 22:00:00,15.73179595,8.09e-05,53.2159,89.7528,53.5647,309.9143,5.902800000000001e-05,7.665e-05,0.0,0 STARLINK-4575,1 53565U 22101AQ  22244.91667824  .00007665  00000-0  59028-4 0  9999,2 53565  53.2159  89.7528 0000809  53.5647 309.9143 15.73179595  1302,6727.953,91.534,350.36300000000006,349.274,0.0
53565.0,STARLINK-4575,PAYLOAD,2022-09-02 04:00:00,15.73199969,7.37e-05,53.2158,88.515,42.8263,297.3306,4.6477e-05,5.908e-05,0.0,0 STARLINK-4575,1 53565U 22101AQ  22245.16667824  .00005908  00000-0  46477-4 0  9999,2 53565  53.2158  88.5150 0000737  42.8263 297.3306 15.73199969  2123,6727.895,91.533,350.256,349.264,0.0
53565.0,STARLINK-4575,PAYLOAD,2022-09-02 14:00:01,15.73236577,7.900000000000001e-05,53.2162,86.4519,66.4127,114.9,-0.00052412,-0.00073646,0.0,0 STARLINK-4575,1 53565U 22101AQ  22245.58334491 -.00073646  00000-0 -52412-3 0  9997,2 53565  53.2162  86.4519 0000790  66.4127 114.9000 15.73236577  1305,6727.791,91.531,350.18699999999984,349.124,0.0
53565.0,STARLINK-4575,PAYLOAD,2022-09-02 22:00:01,15.73170191,0.0001042,53.2159,84.8044,52.0403,218.3031,0.00035684,0.00049692,0.0,0 STARLINK-4575,1 53565U 22101AQ  22245.91668981  .00049692  00000-0  35684-3 0  9992,2 53565  53.2159  84.8044 0001042  52.0403 218.3031 15.73170191  1307,6727.98,91.535,350.546,349.144,0.0
53565.0,STARLINK-4575,PAYLOAD,2022-09-03 14:00:01,15.73202233,0.0001112,53.2173,81.4993,62.062,26.0571,3.2439e-05,3.935e-05,0.0,0 STARLINK-4575,1 53565U 22101AQ  22246.58334491  .00003935  00000-0  32439-4 0  9998,2 53565  53.2173  81.4993 0001112  62.0620  26.0571 15.73202233  2351,6727.889,91.533,350.50199999999984,349.006,0.0
53565.0,STARLINK-4575,PAYLOAD,2022-09-03 20:00:01,15.73221738,0.0001159999999999,53.2159,80.268,57.2881,7.6258,0.00023952,0.00033159,0.0,0 STARLINK-4575,1 53565U 22101AQ  22246.83334491  .00033159  00000-0  23952-3 0  9996,2 53565  53.2159  80.2680 0001160  57.2881   7.6258 15.73221738  2395,6727.833000000001,91.532,350.47900000000016,348.918,0.0
53565.0,STARLINK-4575,PAYLOAD,2022-09-03 22:00:00,15.73219308,0.0001224,53.2162,79.8559,55.5182,121.6377,0.00037,0.0005167,0.0,0 STARLINK-4575,1 53565U 22101AQ  22246.91667824  .00051670  00000-0  37000-3 0  9991,2 53565  53.2162  79.8559 0001224  55.5182 121.6377 15.73219308  1303,6727.84,91.532,350.529,348.88199999999995,0.0
53565.0,STARLINK-4575,PAYLOAD,2022-09-04 12:00:00,15.73195533,0.0001155,53.2162,76.9669,65.0793,177.78,5.0119e-05,6.418e-05,0.0,0 STARLINK-4575,1 53565U 22101AQ  22247.50001157  .00006418  00000-0  50119-4 0  9995,2 53565  53.2162  76.9669 0001155  65.0793 177.7800 15.73195533  2497,6727.908,91.533,350.55,348.996,0.0
53565.0,STARLINK-4575,PAYLOAD,2022-09-04 14:00:01,15.73209062,0.0001155999999999,53.2163,76.5548,63.3202,291.8464,0.00012726,0.00017284,0.0,0 STARLINK-4575,1 53565U 22101AQ  22247.58335648  .00017284  00000-0  12726-3 0  9992,2 53565  53.2163  76.5548 0001156  63.3202 291.8464 15.73209062  1303,6727.869000000002,91.533,350.51199999999994,348.957,0.0
53565.0,STARLINK-4575,PAYLOAD,2022-09-04 20:00:01,15.73227535,0.0001374,53.2159,75.3194,55.8315,275.9771,-0.00038382,-0.00054204,0.0,0 STARLINK-4575,1 53565U 22101AQ  22247.83334491 -.00054204  00000-0 -38382-3 0  9996,2 53565  53.2159  75.3194 0001374  55.8315 275.9771 15.73227535  1304,6727.816999999999,91.532,350.606,348.75699999999995,0.0
53565.0,STARLINK-4575,PAYLOAD,2022-09-05 12:00:00,15.73176118,0.0001312,53.2157,72.0185,70.2949,79.375,0.0010623,0.00151021,0.0,0 STARLINK-4575,1 53565U 22101AQ  22248.50001157  .00151021  00000-0  10623-2 0  9991,2 53565  53.2157  72.0185 0001312  70.2949  79.3750 15.73176118  2654,6727.9630000000025,91.535,350.711,348.946,0.0
53565.0,STARLINK-4575,PAYLOAD,2022-09-05 14:00:01,15.73252652,0.0001237,53.2158,71.6068,66.843,195.0208,-0.00017544,-0.00025223,0.0,0 STARLINK-4575,1 53565U 22101AQ  22248.58334491 -.00025223  00000-0 -17544-3 0  9995,2 53565  53.2158  71.6068 0001237  66.8430 195.0208 15.73252652  1305,6727.745,91.53,350.44199999999995,348.778,0.0
53565.0,STARLINK-4575,PAYLOAD,2022-09-05 20:00:01,15.7324185,0.000137,53.2158,70.3711,53.6276,184.9804,-0.00073206,-0.00102303,0.0,0 STARLINK-4575,1 53565U 22101AQ  22248.83334491 -.00102303  00000-0 -73206-3 0  9995,2 53565  53.2158  70.3711 0001370  53.6276 184.9804 15.73241850  1303,6727.776,91.531,350.56300000000016,348.719,0.0
53565.0,STARLINK-4575,PAYLOAD,2022-09-06 12:00:00,15.73144267,0.0001326,53.216,67.07,62.5619,353.8453,-9.4518e-05,-0.00013831,0.0,0 STARLINK-4575,1 53565U 22101AQ  22249.50001157 -.00013831  00000-0 -94518-4 0  9997,2 53565  53.2160  67.0700 0001326  62.5619 353.8453 15.73144267  2816,6728.054,91.536,350.811,349.027,0.0
53565.0,STARLINK-4575,PAYLOAD,2022-09-06 14:00:01,15.73116593,0.0001309,53.2159,66.6582,57.8851,110.7411,0.00040619,0.00056567,0.0,0 STARLINK-4575,1 53565U 22101AQ  22249.58334491  .00056567  00000-0  40619-3 0  9998,2 53565  53.2159  66.6582 0001309  57.8851 110.7411 15.73116593  1301,6728.1330000000025,91.538,350.879,349.117,0.0
53565.0,STARLINK-4575,PAYLOAD,2022-09-06 20:00:01,15.73162688,0.0001386999999999,53.2155,65.4228,48.4691,96.7831,0.00033898,0.00047145,0.0,0 STARLINK-4575,1 53565U 22101AQ  22249.83334491  .00047145  00000-0  33898-3 0  9999,2 53565  53.2155  65.4228 0001387  48.4691  96.7831 15.73162688  2862,6728.002,91.535,350.8,348.93300000000005,0.0
53565.0,STARLINK-4575,PAYLOAD,2022-09-06 22:00:00,15.73176507,0.000137,53.2154,65.0107,45.1567,212.3095,0.00015695,0.00021441,0.0,0 STARLINK-4575,1 53565U 22101AQ  22249.91667824  .00021441  00000-0  15695-3 0  9993,2 53565  53.2154  65.0107 0001370  45.1567 212.3095 15.73176507  1302,6727.962,91.535,350.749,348.905,0.0
53565.0,STARLINK-4575,PAYLOAD,2022-09-07 04:00:00,15.73184737,0.0001286,53.215,63.7721,49.5573,184.5917,0.00011372,0.00015359,0.0,0 STARLINK-4575,1 53565U 22101AQ  22250.16667824  .00015359  00000-0  11372-3 0  9991,2 53565  53.2150  63.7721 0001286  49.5573 184.5917 15.73184737  2911,6727.939,91.534,350.6690000000001,348.93800000000016,0.0
53565.0,STARLINK-4575,PAYLOAD,2022-09-07 12:00:00,15.73216183,0.0001217999999999,53.2153,62.1217,55.5843,267.4831,0.00050757,0.0007127,0.0,0 STARLINK-4575,1 53565U 22101AQ  22250.50001157  .00071270  00000-0  50757-3 0  9994,2 53565  53.2153  62.1217 0001218  55.5843 267.4831 15.73216183  2961,6727.849,91.532,350.533,348.895,0.0
53565.0,STARLINK-4575,PAYLOAD,2022-09-07 14:00:01,15.73250673,0.0001294,53.2153,61.7098,53.6136,21.6865,0.00011735,0.00015916,0.0,0 STARLINK-4575,1 53565U 22101AQ  22250.58334491  .00015916  00000-0  11735-3 0  9990,2 53565  53.2153  61.7098 0001294  53.6136  21.6865 15.73250673  1307,6727.751,91.53,350.486,348.745,0.0
53565.0,STARLINK-4575,PAYLOAD,2022-09-07 22:00:00,15.73212096,0.0001554,53.2154,60.0618,47.1454,117.1259,0.00017412,0.00023899,0.0,0 STARLINK-4575,1 53565U 22101AQ  22250.91667824  .00023899  00000-0  17412-3 0  9993,2 53565  53.2154  60.0618 0001554  47.1454 117.1259 15.73212096  3035,6727.861,91.532,350.771,348.68,0.0
53565.0,STARLINK-4575,PAYLOAD,2022-09-08 14:00:01,15.73205332,0.0001486,53.2177,56.7562,50.9424,291.1899,-1.3726e-05,-2.546e-05,0.0,0 STARLINK-4575,1 53565U 22101AQ  22251.58334491 -.00002546  00000-0 -13726-4 0  9991,2 53565  53.2177  56.7562 0001486  50.9424 291.1899 15.73205332  1309,6727.88,91.533,350.745,348.745,0.0
53565.0,STARLINK-4575,PAYLOAD,2022-09-08 22:00:00,15.73226103,0.0001626999999999,53.215,55.1124,41.6519,29.5292,7.935800000000001e-05,0.00010543,0.0,0 STARLINK-4575,1 53565U 22101AQ  22251.91667824  .00010543  00000-0  79358-4 0  9994,2 53565  53.2150  55.1124 0001627  41.6519  29.5292 15.73226103  3194,6727.821,91.532,350.78,348.591,0.0
53565.0,STARLINK-4575,PAYLOAD,2022-09-09 14:00:01,15.732486800000002,0.000143,53.2153,51.8118,45.5895,203.5061,-0.00050406,-0.00070916,0.0,0 STARLINK-4575,1 53565U 22101AQ  22252.58334491 -.00070916  00000-0 -50406-3 0  9993,2 53565  53.2153  51.8118 0001430  45.5895 203.5061 15.73248680  3298,6727.755999999999,91.53,350.583,348.659,0.0
53565.0,STARLINK-4575,PAYLOAD,2022-09-09 22:00:00,15.73203679,0.0001666999999999,53.2155,50.1628,37.4173,300.6346,-0.00011429,-0.00016632,0.0,0 STARLINK-4575,1 53565U 22101AQ  22252.91667824 -.00016632  00000-0 -11429-3 0  9996,2 53565  53.2155  50.1628 0001667  37.4173 300.6346 15.73203679  1303,6727.885,91.533,350.871,348.62800000000016,0.0
53565.0,STARLINK-4575,PAYLOAD,2022-09-10 04:00:00,15.73208393,0.000154,53.2158,48.9245,42.0004,272.7478,-0.00066783,-0.00093349,0.0,0 STARLINK-4575,1 53565U 22101AQ  22253.16667824 -.00093349  00000-0 -66783-3 0  9997,2 53565  53.2158  48.9245 0001540  42.0004 272.7478 15.73208393  3384,6727.871,91.533,350.772,348.7,0.0
53565.0,STARLINK-4575,PAYLOAD,2022-09-10 12:00:00,15.73148526,0.000164,53.216,47.2748,45.5237,358.1162,0.00032647,0.00045345,0.0,0 STARLINK-4575,1 53565U 22101AQ  22253.50001157  .00045345  00000-0  32647-3 0  9999,2 53565  53.2160  47.2748 0001640  45.5237 358.1162 15.73148526  3441,6728.042,91.536,351.01,348.80400000000014,0.0
53565.0,STARLINK-4575,PAYLOAD,2022-09-10 14:00:01,15.73161729,0.0001699,53.2159,46.863,43.4078,112.4483,0.00022875,0.00031552,0.0,0 STARLINK-4575,1 53565U 22101AQ  22253.58334491  .00031552  00000-0  22875-3 0  9994,2 53565  53.2159  46.8630 0001699  43.4078 112.4483 15.73161729  1308,6728.004,91.535,351.01199999999994,348.726,0.0
53565.0,STARLINK-4575,PAYLOAD,2022-09-10 22:00:00,15.73179207,0.0001774999999999,53.2153,45.2146,34.1265,210.614,-5.1085e-06,-1.337e-05,0.0,0 STARLINK-4575,1 53565U 22101AQ  22253.91667824 -.00001337  00000-0 -51085-5 0  9997,2 53565  53.2153  45.2146 0001775  34.1265 210.6140 15.73179207  1308,6727.954000000002,91.534,351.014,348.625,0.0
